STARLINK-37066          
1 68081U 26042N   26091.67820735  .00226608  00000+0  14413-2 0  9991
2 68081  53.1593  79.9538 0001584  80.6064 279.5135 15.75268540  5712
STARLINK-37054          
1 68082U 26042P   26091.95139146  .00569346  00000+0  26935-2 0  9993
2 68082  53.1566  78.0832 0008299 150.2846 209.8650 15.80922651  5761
STARLINK-37065          
1 68083U 26042Q   26091.68275598  .00349934  00000+0  21847-2 0  9992
2 68083  53.1583  79.9839 0003251  76.9013 283.2371 15.75333516  5712
STARLINK-37037          
1 68084U 26042R   26091.66459295  .00344836  00000+0  21516-2 0  9998
2 68084  53.1581  79.8629 0001173 101.6666 258.4486 15.75362229  5712
STARLINK-37068          
1 68085U 26042S   26091.91668981 -.00127889  00000+0 -84137-3 0  9999
2 68085  53.1585  78.4533 0001110  86.3389 339.6048 15.75276254  5783
STARLINK-37067          
1 68086U 26042T   26091.91668981 -.00104174  00000+0 -68201-3 0  9996
2 68086  53.1594  78.2426 0001182  94.4010  74.5367 15.75297989  5780
STARLINK-37062          
1 68087U 26042U   26091.91668981  .00033078  00000+0  21928-3 0  9994
2 68087  53.1593  78.2915 0001402 108.6638  36.4156 15.75220773  5782
STARLINK-37059          
1 68088U 26042V   26091.96366232  .00533543  00000+0  32192-2 0  9990
2 68088  53.1601  78.1637 0003587 134.0818 226.0499 15.75599347  5763
STARLINK-37004          
1 68089U 26042W   26091.96820105  .00525442  00000+0  31743-2 0  9995
2 68089  53.1589  78.1936 0003449 141.7658 218.3608 15.75593327  5763
STARLINK-36320          
1 68090U 26042X   26086.15385821  .00375248  00000+0  23254-2 0  9998
2 68090  53.1593 107.3571 0002763 139.4736 220.6491 15.75432358  4849
STARLINK-36324          
1 68091U 26042Y   26091.67854044  .00457465  00000+0  28109-2 0  9996
2 68091  53.1586  79.9555 0001389  59.6652 300.4505 15.75393993  5712
STARLINK-36896          
1 68092U 26042Z   26091.66912997  .00295118  00000+0  18567-2 0  9990
2 68092  53.1584  79.8928 0001154 106.6385 253.4762 15.75315958  5706
