CCSDS_OMM_VERS = 2.0
CREATION_DATE  = 
ORIGINATOR     = 

OBJECT_NAME    = STARLINK-37066
OBJECT_ID      = 2026-042N
CENTER_NAME    = EARTH
REF_FRAME      = TEME
TIME_SYSTEM    = UTC
MEAN_ELEMENT_THEORY = SGP/SGP4

EPOCH          = 2026-04-01T16:16:37.115040
MEAN_MOTION    = 15.75268540
ECCENTRICITY   = .00015841
INCLINATION    = 53.1593
RA_OF_ASC_NODE = 79.9538
ARG_OF_PERICENTER = 80.6064
MEAN_ANOMALY   = 279.5135

EPHEMERIS_TYPE = 0
CLASSIFICATION_TYPE = U
NORAD_CAT_ID   = 68081
ELEMENT_SET_NO = 999
REV_AT_EPOCH   = 571
BSTAR          = .14413166E-2
MEAN_MOTION_DOT = .226608E-2
MEAN_MOTION_DDOT = 0

CCSDS_OMM_VERS = 2.0
CREATION_DATE  = 
ORIGINATOR     = 

OBJECT_NAME    = STARLINK-37054
OBJECT_ID      = 2026-042P
CENTER_NAME    = EARTH
REF_FRAME      = TEME
TIME_SYSTEM    = UTC
MEAN_ELEMENT_THEORY = SGP/SGP4

EPOCH          = 2026-04-01T22:50:00.222144
MEAN_MOTION    = 15.80922651
ECCENTRICITY   = .00082996
INCLINATION    = 53.1566
RA_OF_ASC_NODE = 78.0832
ARG_OF_PERICENTER = 150.2846
MEAN_ANOMALY   = 209.8650

EPHEMERIS_TYPE = 0
CLASSIFICATION_TYPE = U
NORAD_CAT_ID   = 68082
ELEMENT_SET_NO = 999
REV_AT_EPOCH   = 576
BSTAR          = .26934771E-2
MEAN_MOTION_DOT = .569346E-2
MEAN_MOTION_DDOT = 0

CCSDS_OMM_VERS = 2.0
CREATION_DATE  = 
ORIGINATOR     = 

OBJECT_NAME    = STARLINK-37065
OBJECT_ID      = 2026-042Q
CENTER_NAME    = EARTH
REF_FRAME      = TEME
TIME_SYSTEM    = UTC
MEAN_ELEMENT_THEORY = SGP/SGP4

EPOCH          = 2026-04-01T16:23:10.116672
MEAN_MOTION    = 15.75333516
ECCENTRICITY   = .00032518
INCLINATION    = 53.1583
RA_OF_ASC_NODE = 79.9839
ARG_OF_PERICENTER = 76.9013
MEAN_ANOMALY   = 283.2371

EPHEMERIS_TYPE = 0
CLASSIFICATION_TYPE = U
NORAD_CAT_ID   = 68083
ELEMENT_SET_NO = 999
REV_AT_EPOCH   = 571
BSTAR          = .21847035E-2
MEAN_MOTION_DOT = .349934E-2
MEAN_MOTION_DDOT = 0

CCSDS_OMM_VERS = 2.0
CREATION_DATE  = 
ORIGINATOR     = 

OBJECT_NAME    = STARLINK-37037
OBJECT_ID      = 2026-042R
CENTER_NAME    = EARTH
REF_FRAME      = TEME
TIME_SYSTEM    = UTC
MEAN_ELEMENT_THEORY = SGP/SGP4

EPOCH          = 2026-04-01T15:57:00.830880
MEAN_MOTION    = 15.75362229
ECCENTRICITY   = .00011738
INCLINATION    = 53.1581
RA_OF_ASC_NODE = 79.8629
ARG_OF_PERICENTER = 101.6666
MEAN_ANOMALY   = 258.4486

EPHEMERIS_TYPE = 0
CLASSIFICATION_TYPE = U
NORAD_CAT_ID   = 68084
ELEMENT_SET_NO = 999
REV_AT_EPOCH   = 571
BSTAR          = .21516269E-2
MEAN_MOTION_DOT = .344836E-2
MEAN_MOTION_DDOT = 0

CCSDS_OMM_VERS = 2.0
CREATION_DATE  = 
ORIGINATOR     = 

OBJECT_NAME    = STARLINK-37068
OBJECT_ID      = 2026-042S
CENTER_NAME    = EARTH
REF_FRAME      = TEME
TIME_SYSTEM    = UTC
MEAN_ELEMENT_THEORY = SGP/SGP4

EPOCH          = 2026-04-01T22:00:01.999584
MEAN_MOTION    = 15.75276254
ECCENTRICITY   = .00011101
INCLINATION    = 53.1585
RA_OF_ASC_NODE = 78.4533
ARG_OF_PERICENTER = 86.3389
MEAN_ANOMALY   = 339.6048

EPHEMERIS_TYPE = 0
CLASSIFICATION_TYPE = U
NORAD_CAT_ID   = 68085
ELEMENT_SET_NO = 999
REV_AT_EPOCH   = 578
BSTAR          = -.84137496E-3
MEAN_MOTION_DOT = -.127889E-2
MEAN_MOTION_DDOT = 0

CCSDS_OMM_VERS = 2.0
CREATION_DATE  = 
ORIGINATOR     = 

OBJECT_NAME    = STARLINK-37067
OBJECT_ID      = 2026-042T
CENTER_NAME    = EARTH
REF_FRAME      = TEME
TIME_SYSTEM    = UTC
MEAN_ELEMENT_THEORY = SGP/SGP4

EPOCH          = 2026-04-01T22:00:01.999584
MEAN_MOTION    = 15.75297989
ECCENTRICITY   = .00011829
INCLINATION    = 53.1594
RA_OF_ASC_NODE = 78.2426
ARG_OF_PERICENTER = 94.4010
MEAN_ANOMALY   = 74.5367

EPHEMERIS_TYPE = 0
CLASSIFICATION_TYPE = U
NORAD_CAT_ID   = 68086
ELEMENT_SET_NO = 999
REV_AT_EPOCH   = 578
BSTAR          = -.68201322E-3
MEAN_MOTION_DOT = -.104174E-2
MEAN_MOTION_DDOT = 0

CCSDS_OMM_VERS = 2.0
CREATION_DATE  = 
ORIGINATOR     = 

OBJECT_NAME    = STARLINK-37062
OBJECT_ID      = 2026-042U
CENTER_NAME    = EARTH
REF_FRAME      = TEME
TIME_SYSTEM    = UTC
MEAN_ELEMENT_THEORY = SGP/SGP4

EPOCH          = 2026-04-01T22:00:01.999584
MEAN_MOTION    = 15.75220773
ECCENTRICITY   = .00014028
INCLINATION    = 53.1593
RA_OF_ASC_NODE = 78.2915
ARG_OF_PERICENTER = 108.6638
MEAN_ANOMALY   = 36.4156

EPHEMERIS_TYPE = 0
CLASSIFICATION_TYPE = U
NORAD_CAT_ID   = 68087
ELEMENT_SET_NO = 999
REV_AT_EPOCH   = 578
BSTAR          = .21927816E-3
MEAN_MOTION_DOT = .33078E-3
MEAN_MOTION_DDOT = 0

CCSDS_OMM_VERS = 2.0
CREATION_DATE  = 
ORIGINATOR     = 

OBJECT_NAME    = STARLINK-37059
OBJECT_ID      = 2026-042V
CENTER_NAME    = EARTH
REF_FRAME      = TEME
TIME_SYSTEM    = UTC
MEAN_ELEMENT_THEORY = SGP/SGP4

EPOCH          = 2026-04-01T23:07:40.424448
MEAN_MOTION    = 15.75599347
ECCENTRICITY   = .00035878
INCLINATION    = 53.1601
RA_OF_ASC_NODE = 78.1637
ARG_OF_PERICENTER = 134.0818
MEAN_ANOMALY   = 226.0499

EPHEMERIS_TYPE = 0
CLASSIFICATION_TYPE = U
NORAD_CAT_ID   = 68088
ELEMENT_SET_NO = 999
REV_AT_EPOCH   = 576
BSTAR          = .32192336E-2
MEAN_MOTION_DOT = .533543E-2
MEAN_MOTION_DDOT = 0

CCSDS_OMM_VERS = 2.0
CREATION_DATE  = 
ORIGINATOR     = 

OBJECT_NAME    = STARLINK-37004
OBJECT_ID      = 2026-042W
CENTER_NAME    = EARTH
REF_FRAME      = TEME
TIME_SYSTEM    = UTC
MEAN_ELEMENT_THEORY = SGP/SGP4

EPOCH          = 2026-04-01T23:14:12.570720
MEAN_MOTION    = 15.75593327
ECCENTRICITY   = .00034491
INCLINATION    = 53.1589
RA_OF_ASC_NODE = 78.1936
ARG_OF_PERICENTER = 141.7658
MEAN_ANOMALY   = 218.3608

EPHEMERIS_TYPE = 0
CLASSIFICATION_TYPE = U
NORAD_CAT_ID   = 68089
ELEMENT_SET_NO = 999
REV_AT_EPOCH   = 576
BSTAR          = .31743279E-2
MEAN_MOTION_DOT = .525442E-2
MEAN_MOTION_DDOT = 0

CCSDS_OMM_VERS = 2.0
CREATION_DATE  = 
ORIGINATOR     = 

OBJECT_NAME    = STARLINK-36320
OBJECT_ID      = 2026-042X
CENTER_NAME    = EARTH
REF_FRAME      = TEME
TIME_SYSTEM    = UTC
MEAN_ELEMENT_THEORY = SGP/SGP4

EPOCH          = 2026-03-27T03:41:33.349344
MEAN_MOTION    = 15.75432358
ECCENTRICITY   = .00027632
INCLINATION    = 53.1593
RA_OF_ASC_NODE = 107.3571
ARG_OF_PERICENTER = 139.4736
MEAN_ANOMALY   = 220.6491

EPHEMERIS_TYPE = 0
CLASSIFICATION_TYPE = U
NORAD_CAT_ID   = 68090
ELEMENT_SET_NO = 999
REV_AT_EPOCH   = 484
BSTAR          = .2325439E-2
MEAN_MOTION_DOT = .375248E-2
MEAN_MOTION_DDOT = 0

CCSDS_OMM_VERS = 2.0
CREATION_DATE  = 
ORIGINATOR     = 

OBJECT_NAME    = STARLINK-36324
OBJECT_ID      = 2026-042Y
CENTER_NAME    = EARTH
REF_FRAME      = TEME
TIME_SYSTEM    = UTC
MEAN_ELEMENT_THEORY = SGP/SGP4

EPOCH          = 2026-04-01T16:17:05.894016
MEAN_MOTION    = 15.75393993
ECCENTRICITY   = .00013895
INCLINATION    = 53.1586
RA_OF_ASC_NODE = 79.9555
ARG_OF_PERICENTER = 59.6652
MEAN_ANOMALY   = 300.4505

EPHEMERIS_TYPE = 0
CLASSIFICATION_TYPE = U
NORAD_CAT_ID   = 68091
ELEMENT_SET_NO = 999
REV_AT_EPOCH   = 571
BSTAR          = .28109372E-2
MEAN_MOTION_DOT = .457465E-2
MEAN_MOTION_DDOT = 0

CCSDS_OMM_VERS = 2.0
CREATION_DATE  = 
ORIGINATOR     = 

OBJECT_NAME    = STARLINK-36896
OBJECT_ID      = 2026-042Z
CENTER_NAME    = EARTH
REF_FRAME      = TEME
TIME_SYSTEM    = UTC
MEAN_ELEMENT_THEORY = SGP/SGP4

EPOCH          = 2026-04-01T16:03:32.829408
MEAN_MOTION    = 15.75315958
ECCENTRICITY   = .00011543
INCLINATION    = 53.1584
RA_OF_ASC_NODE = 79.8928
ARG_OF_PERICENTER = 106.6385
MEAN_ANOMALY   = 253.4762

EPHEMERIS_TYPE = 0
CLASSIFICATION_TYPE = U
NORAD_CAT_ID   = 68092
ELEMENT_SET_NO = 999
REV_AT_EPOCH   = 570
BSTAR          = .18567126E-2
MEAN_MOTION_DOT = .295118E-2
MEAN_MOTION_DDOT = 0

